CCSDS_OMM_VERS,COMMENT,CREATION_DATE,ORIGINATOR,OBJECT_NAME,OBJECT_ID,CENTER_NAME,REF_FRAME,TIME_SYSTEM,MEAN_ELEMENT_THEORY,EPOCH,MEAN_MOTION,ECCENTRICITY,INCLINATION,RA_OF_ASC_NODE,ARG_OF_PERICENTER,MEAN_ANOMALY,EPHEMERIS_TYPE,CLASSIFICATION_TYPE,NORAD_CAT_ID,ELEMENT_SET_NO,REV_AT_EPOCH,BSTAR,MEAN_MOTION_DOT,MEAN_MOTION_DDOT,SEMIMAJOR_AXIS,PERIOD,APOAPSIS,PERIAPSIS,OBJECT_TYPE,RCS_SIZE,COUNTRY_CODE,LAUNCH_DATE,SITE,DECAY_DATE,FILE,GP_ID,TLE_LINE0,TLE_LINE1,TLE_LINE2
"2.0","GENERATED VIA SPACE-TRACK.ORG API","2021-01-01T22:56:10","18 SPCS","STARLINK-1694","2020-070N","EARTH","TEME","UTC","SGP4","2021-01-01T22:00:00.999936","15.11744376","0.00014760","53.0010","17.7230","53.3694","333.6272","0","U","46544","999","1445","-0.06617000000000","-0.01057746","0.0000000000000","6909.017","95.254","531.901","529.862","PAYLOAD","LARGE","US","2020-10-06","AFETR","","2914201","168758266","0 STARLINK-1694","1 46544U 20070N   21001.91667824 -.01057746  00000-0 -66170-1 0  9992","2 46544  53.0010  17.7230 0001476  53.3694 333.6272 15.11744376 14451"
"2.0","GENERATED VIA SPACE-TRACK.ORG API","2021-01-02T05:37:54","18 SPCS","STARLINK-1694","2020-070N","EARTH","TEME","UTC","SGP4","2021-01-01T22:00:00.999936","15.11744376","0.00014760","53.0010","17.7230","53.3694","333.6272","0","U","46544","999","181","-0.06617000000000","-0.01057746","0.0000000000000","6909.017","95.254","531.901","529.862","PAYLOAD","LARGE","US","2020-10-06","AFETR","","2914228","168778965","0 STARLINK-1694","1 46544U 20070N   21001.91667824 -.01057746  00000-0 -66170-1 0  9992","2 46544  53.0010  17.7230 0001476  53.3694 333.6272 15.11744376  1817"
"2.0","GENERATED VIA SPACE-TRACK.ORG API","2021-01-02T17:46:16","18 SPCS","STARLINK-1694","2020-070N","EARTH","TEME","UTC","SGP4","2021-01-02T08:00:01.999872","15.10806031","0.00014660","53.0006","15.8354","74.8638","60.3697","0","U","46544","999","177","-0.06781000000000","-0.01056083","0.0000000000000","6911.877","95.313","534.755","532.729","PAYLOAD","LARGE","US","2020-10-06","AFETR","","2914532","168807989","0 STARLINK-1694","1 46544U 20070N   21002.33335648 -.01056083  00000-0 -67810-1 0  9990","2 46544  53.0006  15.8354 0001466  74.8638  60.3697 15.10806031  1779"
"2.0","GENERATED VIA SPACE-TRACK.ORG API","2021-01-02T14:36:10","18 SPCS","STARLINK-1694","2020-070N","EARTH","TEME","UTC","SGP4","2021-01-02T14:00:01.000224","15.10244944","0.00013320","53.0002","14.7068","72.4360","342.9628","0","U","46544","999","1455","-0.06884700000000","-0.01055659","0.0000000000000","6913.589","95.348","536.375","534.533","PAYLOAD","LARGE","US","2020-10-06","AFETR","","2914496","168786151","0 STARLINK-1694","1 46544U 20070N   21002.58334491 -.01055659  00000-0 -68847-1 0  9991","2 46544  53.0002  14.7068 0001332  72.4360 342.9628 15.10244944 14555"
"2.0","GENERATED VIA SPACE-TRACK.ORG API","2021-01-03T04:45:08","18 SPCS","STARLINK-1694","2020-070N","EARTH","TEME","UTC","SGP4","2021-01-02T22:00:00.999936","15.09496214","0.00015450","53.0016","13.2049","53.8136","14.4375","0","U","46544","999","180","-0.07021700000000","-0.01054686","0.0000000000000","6915.875","95.396","538.808","536.671","PAYLOAD","LARGE","US","2020-10-06","AFETR","","2914766","168834554","0 STARLINK-1694","1 46544U 20070N   21002.91667824 -.01054686  00000-0 -70217-1 0  9990","2 46544  53.0016  13.2049 0001545  53.8136  14.4375 15.09496214  1804"
"2.0","GENERATED VIA SPACE-TRACK.ORG API","2021-01-03T14:56:09","18 SPCS","STARLINK-1694","2020-070N","EARTH","TEME","UTC","SGP4","2021-01-03T14:00:01.000224","15.07932516","0.00015680","53.0018","10.2024","65.8854","25.4038","0","U","46544","999","1470","-0.06610800000000","-0.00946994","0.0000000000000","6920.655","95.494","543.605","541.435","PAYLOAD","LARGE","US","2020-10-06","AFETR","","2915140","168844428","0 STARLINK-1694","1 46544U 20070N   21003.58334491 -.00946994  00000-0 -66108-1 0  9990","2 46544  53.0018  10.2024 0001568  65.8854  25.4038 15.07932516 14700"
"2.0","GENERATED VIA SPACE-TRACK.ORG API","2021-01-03T18:15:03","18 SPCS","STARLINK-1694","2020-070N","EARTH","TEME","UTC","SGP4","2021-01-03T14:00:01.000224","15.07932516","0.00015680","53.0018","10.2024","65.8854","25.4038","0","U","46544","999","176","-0.06610800000000","-0.00946994","0.0000000000000","6920.655","95.494","543.605","541.435","PAYLOAD","LARGE","US","2020-10-06","AFETR","","2915165","168866331","0 STARLINK-1694","1 46544U 20070N   21003.58334491 -.00946994  00000-0 -66108-1 0  9990","2 46544  53.0018  10.2024 0001568  65.8854  25.4038 15.07932516  1762"
"2.0","GENERATED VIA SPACE-TRACK.ORG API","2021-01-03T22:56:09","18 SPCS","STARLINK-1694","2020-070N","EARTH","TEME","UTC","SGP4","2021-01-03T22:00:00.999936","15.07253753","0.00015120","53.0022","8.7034","62.4958","38.9161","0","U","46544","999","1475","-0.07445200000000","-0.01051718","0.0000000000000","6922.733","95.537","545.644","543.551","PAYLOAD","LARGE","US","2020-10-06","AFETR","","2915348","168870758","0 STARLINK-1694","1 46544U 20070N   21003.91667824 -.01051718  00000-0 -74452-1 0  9999","2 46544  53.0022   8.7034 0001512  62.4958  38.9161 15.07253753 14755"
"2.0","GENERATED VIA SPACE-TRACK.ORG API","2021-01-04T04:41:25","18 SPCS","STARLINK-1694","2020-070N","EARTH","TEME","UTC","SGP4","2021-01-03T22:00:00.999936","15.07253753","0.00015120","53.0022","8.7034","62.4958","38.9161","0","U","46544","999","181","-0.07445200000000","-0.01051718","0.0000000000000","6922.733","95.537","545.644","543.551","PAYLOAD","LARGE","US","2020-10-06","AFETR","","2915362","168891898","0 STARLINK-1694","1 46544U 20070N   21003.91667824 -.01051718  00000-0 -74452-1 0  9999","2 46544  53.0022   8.7034 0001512  62.4958  38.9161 15.07253753  1818"
"2.0","GENERATED VIA SPACE-TRACK.ORG API","2021-01-04T19:20:11","18 SPCS","STARLINK-1694","2020-070N","EARTH","TEME","UTC","SGP4","2021-01-04T14:00:01.000224","15.05755512","0.00015880","53.0020","5.7101","63.1526","55.8838","0","U","46544","999","175","-0.07709000000000","-0.01045957","0.0000000000000","6927.324","95.633","550.289","548.089","PAYLOAD","LARGE","US","2020-10-06","AFETR","","2915788","168924440","0 STARLINK-1694","1 46544U 20070N   21004.58334491 -.01045957  00000-0 -77090-1 0  9993","2 46544  53.0020   5.7101 0001588  63.1526  55.8838 15.05755512  1750"
"2.0","GENERATED VIA SPACE-TRACK.ORG API","2021-01-04T22:46:09","18 SPCS","STARLINK-1694","2020-070N","EARTH","TEME","UTC","SGP4","2021-01-04T22:00:00.999936","15.05021732","0.00015600","53.0024","4.2165","62.8934","63.6054","0","U","46544","999","1490","-0.08496500000000","-0.01123657","0.0000000000000","6929.575","95.679","552.521","550.359","PAYLOAD","LARGE","US","2020-10-06","AFETR","","2915902","168927295","0 STARLINK-1694","1 46544U 20070N   21004.91667824 -.01123657  00000-0 -84965-1 0  9992","2 46544  53.0024   4.2165 0001560  62.8934  63.6054 15.05021732 14905"
"2.0","GENERATED VIA SPACE-TRACK.ORG API","2021-01-05T17:59:45","18 SPCS","STARLINK-1694","2020-070N","EARTH","TEME","UTC","SGP4","2021-01-05T14:00:01.999872","15.03376900","0.00016200","53.0015","1.2329","67.1368","71.5694","0","U","46544","999","175","-0.07710200000000","-0.00985629","0.0000000000000","6934.629","95.784","557.617","555.371","PAYLOAD","LARGE","US","2020-10-06","AFETR","","2916372","168959147","0 STARLINK-1694","1 46544U 20070N   21005.58335648 -.00985629  00000-0 -77102-1 0  9991","2 46544  53.0015   1.2329 0001620  67.1368  71.5694 15.03376900  1755"
"2.0","GENERATED VIA SPACE-TRACK.ORG API","2021-01-05T22:46:09","18 SPCS","STARLINK-1694","2020-070N","EARTH","TEME","UTC","SGP4","2021-01-05T22:00:00.999936","15.02457775","0.00014370","53.0018","359.7420","66.9527","76.3589","0","U","46544","999","1506","-0.01591400000000","-0.00207431","0.0000000000000","6937.457","95.842","560.319","558.325","PAYLOAD","LARGE","US","2020-10-06","AFETR","","2916535","168963750","0 STARLINK-1694","1 46544U 20070N   21005.91667824 -.00207431  00000-0 -15914-1 0  9993","2 46544  53.0018 359.7420 0001437  66.9527  76.3589 15.02457775 15065"
"2.0","GENERATED VIA SPACE-TRACK.ORG API","2021-01-06T02:41:12","18 SPCS","STARLINK-1694","2020-070N","EARTH","TEME","UTC","SGP4","2021-01-05T22:00:00.999936","15.02457775","0.00014370","53.0018","359.7420","66.9527","76.3589","0","U","46544","999","180","-0.01591400000000","-0.00207431","0.0000000000000","6937.457","95.842","560.319","558.325","PAYLOAD","LARGE","US","2020-10-06","AFETR","","2916550","168984535","0 STARLINK-1694","1 46544U 20070N   21005.91667824 -.00207431  00000-0 -15914-1 0  9993","2 46544  53.0018 359.7420 0001437  66.9527  76.3589 15.02457775  1802"
"2.0","GENERATED VIA SPACE-TRACK.ORG API","2021-01-06T06:56:09","18 SPCS","STARLINK-1694","2020-070N","EARTH","TEME","UTC","SGP4","2021-01-06T06:00:00.999648","15.02322376","0.00013940","53.0017","358.2535","81.7527","65.5022","0","U","46544","999","1511","-0.00019533000000","-0.00002879","0.0000000000000","6937.874","95.851","560.706","558.772","PAYLOAD","LARGE","US","2020-10-06","AFETR","","2916822","168991516","0 STARLINK-1694","1 46544U 20070N   21006.25001157 -.00002879  00000-0 -19533-3 0  9994","2 46544  53.0017 358.2535 0001394  81.7527  65.5022 15.02322376 15118"
"2.0","GENERATED VIA SPACE-TRACK.ORG API","2021-01-06T14:56:10","18 SPCS","STARLINK-1694","2020-070N","EARTH","TEME","UTC","SGP4","2021-01-06T14:00:01.999872","15.02335186","0.00012740","53.0070","356.7670","57.7750","93.2552","0","U","46544","999","1516","-0.00220420000000","-0.00029599","0.0000000000000","6937.834","95.850","560.583","558.815","PAYLOAD","LARGE","US","2020-10-06","AFETR","","2917286","169002903","0 STARLINK-1694","1 46544U 20070N   21006.58335648 -.00029599  00000-0 -22042-2 0  9991","2 46544  53.0070 356.7670 0001274  57.7750  93.2552 15.02335186 15162"
